ONEWEB-0160             
1 48060U 21025U   23059.08607519  .00000005  00000+0 -20452-4 0  9995
2 48060  87.9076 199.7182 0001028  53.4804 306.6420 13.13470979 95367
ONEWEB-0160             
1 48060U 21025U   23059.39078525  .00000122  00000+0  29824-3 0  9998
2 48060  87.9076 199.6579 0001011  53.8549 306.2674 13.13471319 95409
ONEWEB-0160             
1 48060U 21025U   23059.92402880  .00000138  00000+0  34202-3 0  9995
2 48060  87.9077 199.5525 0000995  52.7849 307.3371 13.13471384 95476
ONEWEB-0160             
1 48060U 21025U   23060.45727165  .00000262  00000+0  68254-3 0  9993
2 48060  87.9079 199.4472 0000962  55.0121 305.1098 13.13471419 95540
ONEWEB-0160             
1 48060U 21025U   23060.83816876 -.00000764  00000+0 -21285-2 0  9994
2 48060  87.9083 199.3718 0000874  50.5405 309.5801 13.13464137 95598
ONEWEB-0160             
1 48060U 21025U   23061.14287755 -.00000596  00000+0 -16671-2 0  9993
2 48060  87.9053 199.3106 0000432  46.2293 313.8872 13.13465120 95637
ONEWEB-0160             
1 48060U 21025U   23061.82847232  .00000255  00000+0  66287-3 0  9999
2 48060  87.9084 199.1764 0000793  51.2431 308.8768 13.13471139 95724
ONEWEB-0160             
1 48060U 21025U   23062.43789272  .00000772  00000+0  20804-2 0  9994
2 48060  87.9088 199.0560 0000714  53.3404 306.7791 13.13469203 95808
ONEWEB-0160             
1 48060U 21025U   23062.89495878  .00001303  00000+0  35328-2 0  9998
2 48060  87.9083 198.9656 0000850  57.5428 302.5784 13.13467131 95860
